25851,GLOBALSTAR M035,1999,130.37,-1.0,-,51.99,Inactive,0,MEO,USA,Globalstar,Unknown,Unknown,Unknown,1 25851U 99037A   24268.80700699 -.00000035  00000+0  10748-2 0  9990,2 25851  51.9942 286.7897 0013666 272.3618 258.8359 11.04532891 66939,11.04532891,0.0013666,MEO
25852,GLOBALSTAR M032,1999,128.68,-1.0,-,51.99,Inactive,0,MEO,USA,Globalstar,Unknown,Unknown,Unknown,1 25852U 99037B   24268.59399019 -.00000055  00000+0  36886-3 0  9991,2 25852  51.9923 130.7819 0011448  79.2238 280.9850 11.19063579105056,11.19063579,0.0011448,MEO
25853,GLOBALSTAR M051,1999,126.07,-1.0,-,51.98,Inactive,0,LEO,USA,Globalstar,Unknown,Unknown,Unknown,1 25853U 99037C   24268.89076667 -.00000052  00000+0  50065-3 0  9998,2 25853  51.9817 320.8883 0001554 103.9193 256.1790 11.42200695102091,11.42200695,0.0001554,LEO
25854,GLOBALSTAR M030,1999,124.66,-1.0,-,51.99,Inactive,0,LEO,USA,Globalstar,Unknown,Unknown,Unknown,1 25854U 99037D   24269.37377248 -.00000055  00000+0  41971-3 0  9991,2 25854  51.9858 142.6646 0003309 301.6224  58.4270 11.55102059119549,11.55102059,0.0003309,LEO
25872,GLOBALSTAR M048,1999,127.0,-1.0,-,51.93,Inactive,0,LEO,USA,Globalstar,Unknown,Unknown,Unknown,1 25872U 99041A   24268.34193447 -.00000047  00000+0  61535-3 0  9998,2 25872  51.9345 246.9650 0013421  83.0389  61.4983 11.33849523 94820,11.33849523,0.0013421,LEO
25873,GLOBALSTAR M026,1999,130.1,-1.0,-,52.0,Inactive,0,MEO,USA,Globalstar,Unknown,Unknown,Unknown,1 25873U 99041B   24268.71312913 -.00000144  00000+0 -29472-2 0  9993,2 25873  52.0030  47.7414 0001769 136.5057 238.7114 11.06831750119092,11.0683175,0.0001769,MEO
25874,GLOBALSTAR M043,1999,127.92,-1.0,-,51.94,Inactive,0,LEO,USA,Globalstar,Unknown,Unknown,Unknown,1 25874U 99041C   24268.48510554 -.00000122  00000+0 -16161-2 0  9996,2 25874  51.9437 343.6803 0012949 216.2751 156.3424 11.25684600 92956,11.256846,0.0012949,LEO
25875,GLOBALSTAR M028,1999,115.15,-1.0,-,51.96,Inactive,0,LEO,USA,Globalstar,Unknown,Unknown,Unknown,1 25875U 99041D   24269.28266358 -.00000076  00000+0  15265-3 0  9998,2 25875  51.9609 262.9542 0063198 216.0889 143.5697 12.50565336157060,12.50565336,0.0063198,LEO
